{
 "generated_at": "2026-07-11T07:11:30Z",
 "sources": [
  {
   "name": "CelesTrak",
   "url": "https://celestrak.org/NORAD/elements/",
   "license": "frei verfügbar; Attribution. Ursprünglich USSPACECOM/Space-Track."
  },
  {
   "name": "GCAT (J. McDowell, planet4589.org)",
   "url": "https://planet4589.org/space/gcat/",
   "license": "CC-BY 4.0"
  }
 ],
 "satellites": [
  {
   "norad": 43262,
   "name": "GAOFEN-1 04",
   "intl": "2018-031D",
   "group": "resource",
   "gcat": {
    "class": "C",
    "category": "IMG",
    "owner": "CNSAS",
    "state": "CN"
   },
   "omm": {
    "OBJECT_NAME": "GAOFEN-1 04",
    "OBJECT_ID": "2018-031D",
    "EPOCH": "2026-07-10T20:04:44.904576",
    "MEAN_MOTION": 14.76466514,
    "ECCENTRICITY": 0.0001493,
    "INCLINATION": 98.0519,
    "RA_OF_ASC_NODE": 254.3458,
    "ARG_OF_PERICENTER": 57.1123,
    "MEAN_ANOMALY": 303.023,
    "EPHEMERIS_TYPE": 0,
    "CLASSIFICATION_TYPE": "U",
    "NORAD_CAT_ID": 43262,
    "ELEMENT_SET_NO": 999,
    "REV_AT_EPOCH": 44617,
    "BSTAR": 0.0000089358,
    "MEAN_MOTION_DOT": 1.1e-7,
    "MEAN_MOTION_DDOT": 0
   }
  },
  {
   "norad": 44622,
   "name": "GAOFEN-10R",
   "intl": "2019-066A",
   "group": "resource",
   "gcat": {
    "class": null,
    "category": null,
    "owner": null,
    "state": null
   },
   "omm": {
    "OBJECT_NAME": "GAOFEN-10R",
    "OBJECT_ID": "2019-066A",
    "EPOCH": "2026-07-10T20:03:33.939936",
    "MEAN_MOTION": 14.83051379,
    "ECCENTRICITY": 0.0007057,
    "INCLINATION": 98.0513,
    "RA_OF_ASC_NODE": 145.5883,
    "ARG_OF_PERICENTER": 64.3678,
    "MEAN_ANOMALY": 295.8264,
    "EPHEMERIS_TYPE": 0,
    "CLASSIFICATION_TYPE": "U",
    "NORAD_CAT_ID": 44622,
    "ELEMENT_SET_NO": 999,
    "REV_AT_EPOCH": 36588,
    "BSTAR": 0.000084822,
    "MEAN_MOTION_DOT": 0.00000635,
    "MEAN_MOTION_DDOT": 0
   }
  },
  {
   "norad": 43585,
   "name": "GAOFEN-11 01",
   "intl": "2018-063A",
   "group": "resource",
   "gcat": {
    "class": null,
    "category": null,
    "owner": null,
    "state": null
   },
   "omm": {
    "OBJECT_NAME": "GAOFEN-11 01",
    "OBJECT_ID": "2018-063A",
    "EPOCH": "2026-07-10T20:16:54.339168",
    "MEAN_MOTION": 15.55975909,
    "ECCENTRICITY": 0.0002688,
    "INCLINATION": 97.1284,
    "RA_OF_ASC_NODE": 258.6658,
    "ARG_OF_PERICENTER": 218.8511,
    "MEAN_ANOMALY": 141.2551,
    "EPHEMERIS_TYPE": 0,
    "CLASSIFICATION_TYPE": "U",
    "NORAD_CAT_ID": 43585,
    "ELEMENT_SET_NO": 999,
    "REV_AT_EPOCH": 44402,
    "BSTAR": 0.00012958,
    "MEAN_MOTION_DOT": 0.00008904,
    "MEAN_MOTION_DDOT": 0
   }
  },
  {
   "norad": 44819,
   "name": "GAOFEN-12 01",
   "intl": "2019-082A",
   "group": "resource",
   "gcat": {
    "class": null,
    "category": null,
    "owner": null,
    "state": null
   },
   "omm": {
    "OBJECT_NAME": "GAOFEN-12 01",
    "OBJECT_ID": "2019-082A",
    "EPOCH": "2026-07-10T20:53:31.871328",
    "MEAN_MOTION": 14.80477394,
    "ECCENTRICITY": 0.0001199,
    "INCLINATION": 97.8106,
    "RA_OF_ASC_NODE": 197.6253,
    "ARG_OF_PERICENTER": 52.1377,
    "MEAN_ANOMALY": 307.9944,
    "EPHEMERIS_TYPE": 0,
    "CLASSIFICATION_TYPE": "U",
    "NORAD_CAT_ID": 44819,
    "ELEMENT_SET_NO": 999,
    "REV_AT_EPOCH": 35759,
    "BSTAR": 0.000033147,
    "MEAN_MOTION_DOT": 0.00000203,
    "MEAN_MOTION_DDOT": 0
   }
  },
  {
   "norad": 48079,
   "name": "GAOFEN-12 02",
   "intl": "2021-026A",
   "group": "resource",
   "gcat": {
    "class": "D",
    "category": "IMG-R",
    "owner": "ZLZB",
    "state": "CN"
   },
   "omm": {
    "OBJECT_NAME": "GAOFEN-12 02",
    "OBJECT_ID": "2021-026A",
    "EPOCH": "2026-07-10T21:13:07.650912",
    "MEAN_MOTION": 14.80314076,
    "ECCENTRICITY": 0.0005567,
    "INCLINATION": 97.9931,
    "RA_OF_ASC_NODE": 189.9688,
    "ARG_OF_PERICENTER": 143.6715,
    "MEAN_ANOMALY": 216.4876,
    "EPHEMERIS_TYPE": 0,
    "CLASSIFICATION_TYPE": "U",
    "NORAD_CAT_ID": 48079,
    "ELEMENT_SET_NO": 999,
    "REV_AT_EPOCH": 28526,
    "BSTAR": 0.000031245,
    "MEAN_MOTION_DOT": 0.00000185,
    "MEAN_MOTION_DDOT": 0
   }
  },
  {
   "norad": 52912,
   "name": "GAOFEN-12 03",
   "intl": "2022-069A",
   "group": "resource",
   "gcat": {
    "class": "D",
    "category": "IMG-R",
    "owner": "ZLZB",
    "state": "CN"
   },
   "omm": {
    "OBJECT_NAME": "GAOFEN-12 03",
    "OBJECT_ID": "2022-069A",
    "EPOCH": "2026-07-10T20:24:44.042400",
    "MEAN_MOTION": 14.80072383,
    "ECCENTRICITY": 0.0002513,
    "INCLINATION": 97.8252,
    "RA_OF_ASC_NODE": 79.1213,
    "ARG_OF_PERICENTER": 77.866,
    "MEAN_ANOMALY": 282.2833,
    "EPHEMERIS_TYPE": 0,
    "CLASSIFICATION_TYPE": "U",
    "NORAD_CAT_ID": 52912,
    "ELEMENT_SET_NO": 999,
    "REV_AT_EPOCH": 21811,
    "BSTAR": 0.000118,
    "MEAN_MOTION_DOT": 0.00000843,
    "MEAN_MOTION_DDOT": 0
   }
  },
  {
   "norad": 57654,
   "name": "GAOFEN-12 04",
   "intl": "2023-123A",
   "group": "resource",
   "gcat": {
    "class": "D",
    "category": "IMG-R",
    "owner": "ZLZB",
    "state": "CN"
   },
   "omm": {
    "OBJECT_NAME": "GAOFEN-12 04",
    "OBJECT_ID": "2023-123A",
    "EPOCH": "2026-07-10T20:51:50.459328",
    "MEAN_MOTION": 14.79770444,
    "ECCENTRICITY": 0.000372,
    "INCLINATION": 97.9105,
    "RA_OF_ASC_NODE": 109.5345,
    "ARG_OF_PERICENTER": 59.2975,
    "MEAN_ANOMALY": 300.8602,
    "EPHEMERIS_TYPE": 0,
    "CLASSIFICATION_TYPE": "U",
    "NORAD_CAT_ID": 57654,
    "ELEMENT_SET_NO": 999,
    "REV_AT_EPOCH": 15613,
    "BSTAR": 0.000075907,
    "MEAN_MOTION_DOT": 0.00000519,
    "MEAN_MOTION_DDOT": 0
   }
  },
  {
   "norad": 40118,
   "name": "GAOFEN-2",
   "intl": "2014-049A",
   "group": "resource",
   "gcat": {
    "class": "C",
    "category": "IMG",
    "owner": "CNSAS",
    "state": "CN"
   },
   "omm": {
    "OBJECT_NAME": "GAOFEN-2",
    "OBJECT_ID": "2014-049A",
    "EPOCH": "2026-07-10T19:47:45.688704",
    "MEAN_MOTION": 14.80925601,
    "ECCENTRICITY": 0.0007963,
    "INCLINATION": 98.01,
    "RA_OF_ASC_NODE": 256.0084,
    "ARG_OF_PERICENTER": 146.9325,
    "MEAN_ANOMALY": 213.2386,
    "EPHEMERIS_TYPE": 0,
    "CLASSIFICATION_TYPE": "U",
    "NORAD_CAT_ID": 40118,
    "ELEMENT_SET_NO": 999,
    "REV_AT_EPOCH": 64273,
    "BSTAR": 0.000069683,
    "MEAN_MOTION_DOT": 0.00000486,
    "MEAN_MOTION_DDOT": 0
   }
  },
  {
   "norad": 41727,
   "name": "GAOFEN-3",
   "intl": "2016-049A",
   "group": "resource",
   "gcat": {
    "class": "C",
    "category": "IMG-R",
    "owner": "GWHYZ",
    "state": "CN"
   },
   "omm": {
    "OBJECT_NAME": "GAOFEN-3",
    "OBJECT_ID": "2016-049A",
    "EPOCH": "2026-07-10T21:08:05.193888",
    "MEAN_MOTION": 14.42217874,
    "ECCENTRICITY": 0.0001778,
    "INCLINATION": 98.402,
    "RA_OF_ASC_NODE": 199.3086,
    "ARG_OF_PERICENTER": 88.7865,
    "MEAN_ANOMALY": 271.3529,
    "EPHEMERIS_TYPE": 0,
    "CLASSIFICATION_TYPE": "U",
    "NORAD_CAT_ID": 41727,
    "ELEMENT_SET_NO": 999,
    "REV_AT_EPOCH": 52206,
    "BSTAR": -0.000033251,
    "MEAN_MOTION_DOT": -0.00000153,
    "MEAN_MOTION_DDOT": 0
   }
  },
  {
   "norad": 49495,
   "name": "GAOFEN-3 02",
   "intl": "2021-109A",
   "group": "sar",
   "gcat": {
    "class": "C",
    "category": "IMG-R",
    "owner": "GWHYZ",
    "state": "CN"
   },
   "omm": {
    "OBJECT_NAME": "GAOFEN-3 02",
    "OBJECT_ID": "2021-109A",
    "EPOCH": "2026-07-10T20:17:32.591904",
    "MEAN_MOTION": 14.42219489,
    "ECCENTRICITY": 0.0001365,
    "INCLINATION": 98.4097,
    "RA_OF_ASC_NODE": 199.6059,
    "ARG_OF_PERICENTER": 292.2684,
    "MEAN_ANOMALY": 67.836,
    "EPHEMERIS_TYPE": 0,
    "CLASSIFICATION_TYPE": "U",
    "NORAD_CAT_ID": 49495,
    "ELEMENT_SET_NO": 999,
    "REV_AT_EPOCH": 24372,
    "BSTAR": -0.0000089929,
    "MEAN_MOTION_DOT": -7.3e-7,
    "MEAN_MOTION_DDOT": 0
   }
  }
 ]
}
