GAOFEN-2                
1 40118U 14049A   26191.82483436  .00000486  00000+0  69683-4 0  9992
2 40118  98.0100 256.0084 0007963 146.9325 213.2386 14.80925601642737
GAOFEN-3                
1 41727U 16049A   26191.88061567 -.00000153  00000+0 -33251-4 0  9999
2 41727  98.4020 199.3086 0001778  88.7865 271.3529 14.42217874522061
GAOFEN-1 04             
1 43262U 18031D   26191.83663084  .00000011  00000+0  89358-5 0  9996
2 43262  98.0519 254.3458 0001493  57.1123 303.0230 14.76466514446175
GAOFEN-11 01            
1 43585U 18063A   26191.84507337  .00008904  00000+0  12958-3 0  9997
2 43585  97.1284 258.6658 0002688 218.8511 141.2551 15.55975909444026
GAOFEN-10R              
1 44622U 19066A   26191.83580949  .00000635  00000+0  84822-4 0  9996
2 44622  98.0513 145.5883 0007057  64.3678 295.8264 14.83051379365880
GAOFEN-12 01            
1 44819U 19082A   26191.87050777  .00000203  00000+0  33147-4 0  9992
2 44819  97.8106 197.6253 0001199  52.1377 307.9944 14.80477394357599
GAOFEN-12 02            
1 48079U 21026A   26191.88411633  .00000185  00000+0  31245-4 0  9994
2 48079  97.9931 189.9688 0005567 143.6715 216.4876 14.80314076285268
GAOFEN-3 02             
1 49495U 21109A   26191.84551611 -.00000073  00000+0 -89929-5 0  9997
2 49495  98.4097 199.6059 0001365 292.2684  67.8360 14.42219489243729
GAOFEN-12 03            
1 52912U 22069A   26191.85050975  .00000843  00000+0  11800-3 0  9993
2 52912  97.8252  79.1213 0002513  77.8660 282.2833 14.80072383218119
GAOFEN-12 04            
1 57654U 23123A   26191.86933402  .00000519  00000+0  75907-4 0  9998
2 57654  97.9105 109.5345 0003720  59.2975 300.8602 14.79770444156138
